[{"OBJECT_NAME":"HYPERFIELD-1A","OBJECT_ID":"2024-149CY","EPOCH":"2026-03-09T18:21:25.814304","MEAN_MOTION":15.29681349,"ECCENTRICITY":0.00038648,"INCLINATION":97.3842,"RA_OF_ASC_NODE":149.5066,"ARG_OF_PERICENTER":313.7844,"MEAN_ANOMALY":46.3076,"EPHEMERIS_TYPE":0,"CLASSIFICATION_TYPE":"U","NORAD_CAT_ID":60562,"ELEMENT_SET_NO":999,"REV_AT_EPOCH":8683,"BSTAR":0.00030052114,"MEAN_MOTION_DOT":8.569e-5,"MEAN_MOTION_DDOT":0},{"OBJECT_NAME":"STARLINK-34222","OBJECT_ID":"2025-113X","EPOCH":"2026-03-09T10:35:20.123232","MEAN_MOTION":15.30196643,"ECCENTRICITY":0.00013369,"INCLINATION":53.1598,"RA_OF_ASC_NODE":92.5258,"ARG_OF_PERICENTER":80.5572,"MEAN_ANOMALY":279.558,"EPHEMERIS_TYPE":0,"CLASSIFICATION_TYPE":"U","NORAD_CAT_ID":64191,"ELEMENT_SET_NO":999,"REV_AT_EPOCH":4498,"BSTAR":0.00093844969,"MEAN_MOTION_DOT":0.00027535,"MEAN_MOTION_DDOT":0}]
